[{"OBJECT_NAME":"STARLINK-35949","OBJECT_ID":"2025-271P","EPOCH":"2026-03-09T11:03:24.733152","MEAN_MOTION":15.30187841,"ECCENTRICITY":0.00014626,"INCLINATION":53.1604,"RA_OF_ASC_NODE":140.851,"ARG_OF_PERICENTER":105.6673,"MEAN_ANOMALY":254.4489,"EPHEMERIS_TYPE":0,"CLASSIFICATION_TYPE":"U","NORAD_CAT_ID":66630,"ELEMENT_SET_NO":999,"REV_AT_EPOCH":1753,"BSTAR":0.00086234911,"MEAN_MOTION_DOT":0.00025258,"MEAN_MOTION_DDOT":0},{"OBJECT_NAME":"CP8 (IPEX)","OBJECT_ID":"2013-072K","EPOCH":"2026-03-09T13:09:38.394720","MEAN_MOTION":15.06461805,"ECCENTRICITY":0.0159394,"INCLINATION":120.4656,"RA_OF_ASC_NODE":280.3913,"ARG_OF_PERICENTER":252.2911,"MEAN_ANOMALY":106.0698,"EPHEMERIS_TYPE":0,"CLASSIFICATION_TYPE":"U","NORAD_CAT_ID":39471,"ELEMENT_SET_NO":999,"REV_AT_EPOCH":10021,"BSTAR":0.00057825,"MEAN_MOTION_DOT":0.0001114,"MEAN_MOTION_DDOT":0}]
